{
    "links": {
        "self": "http://www.neowsapp.com/rest/v1/neo/3432703?api_key=iIulBulltgU6a56xZRHN4H3l9WmuAYTsLGpBGhQ2"
    },
    "id": "3432703",
    "neo_reference_id": "3432703",
    "name": "(2008 US2)",
    "designation": "2008 US2",
    "nasa_jpl_url": "http://ssd.jpl.nasa.gov/sbdb.cgi?sstr=3432703",
    "absolute_magnitude_h": 23.8,
    "estimated_diameter": {
        "kilometers": {
            "estimated_diameter_min": 0.046190746,
            "estimated_diameter_max": 0.1032856481
        },
        "meters": {
            "estimated_diameter_min": 46.1907460282,
            "estimated_diameter_max": 103.2856480504
        },
        "miles": {
            "estimated_diameter_min": 0.0287015901,
            "estimated_diameter_max": 0.0641787064
        },
        "feet": {
            "estimated_diameter_min": 151.544447199,
            "estimated_diameter_max": 338.8636855496
        }
    },
    "is_potentially_hazardous_asteroid": false,
    "close_approach_data": [
        {
            "close_approach_date": "2008-11-07",
            "close_approach_date_full": "2008-Nov-07 20:22",
            "epoch_date_close_approach": 1226089320000,
            "relative_velocity": {
                "kilometers_per_second": "3.3022018204",
                "kilometers_per_hour": "11887.926553364",
                "miles_per_hour": "7386.6952520055"
            },
            "miss_distance": {
                "astronomical": "0.1217296707",
                "lunar": "47.3528419023",
                "kilometers": "18210499.452521409",
                "miles": "11315479.6540330842"
            },
            "orbiting_body": "Earth"
        }
    ],
    "orbital_data": {
        "orbit_id": "17",
        "orbit_determination_date": "2017-04-06 09:02:29",
        "first_observation_date": "2008-10-23",
        "last_observation_date": "2008-11-19",
        "data_arc_in_days": 27,
        "observations_used": 52,
        "orbit_uncertainty": "7",
        "minimum_orbit_intersection": ".11337",
        "jupiter_tisserand_invariant": "4.443",
        "epoch_osculation": "2459000.5",
        "eccentricity": ".2788391043414335",
        "semi_major_axis": "1.528085216756032",
        "inclination": "4.40816028444593",
        "ascending_node_longitude": "35.42825289123659",
        "orbital_period": "689.9534461842186",
        "perihelion_distance": "1.101995303558394",
        "perihelion_argument": "14.74865766606118",
        "aphelion_distance": "1.954175129953669",
        "perihelion_time": "2458920.192157021687",
        "mean_anomaly": "41.90257129967778",
        "mean_motion": ".5217743341829464",
        "equinox": "J2000",
        "orbit_class": {
            "orbit_class_type": "AMO",
            "orbit_class_description": "Near-Earth asteroid orbits similar to that of 1221 Amor",
            "orbit_class_range": "1.017 AU < q (perihelion) < 1.3 AU"
        }
    },
    "is_sentry_object": false
}